GLOBALSTAR M057         
1 25943U 99058A   25338.09953196 -.00000007  00000+0  77720-3 0  9990
2 25943  51.9971 225.9913 0003046  17.9622 342.1335 12.24830582187752
GLOBALSTAR M059         
1 25944U 99058B   25337.67186933 -.00000082  00000+0  46024-4 0  9998
2 25944  52.0005 108.6561 0000740 108.9444 264.4393 11.99988031594396
GLOBALSTAR M056         
1 25945U 99058C   25337.68082597 -.00000050  00000+0  43208-3 0  9996
2 25945  51.9954 106.2470 0001711 137.2115 326.3517 12.04782051183054
GLOBALSTAR M031         
1 25946U 99058D   25338.23276274 -.00000132  00000+0 -42148-3 0  9990
2 25946  51.9986 346.8851 0001384 160.1544 280.9342 12.16044632185234
GLOBALSTAR M039         
1 25961U 99062A   25338.08496834 -.00000084  00000+0  10865-3 0  9997
2 25961  51.9833 111.2334 0002522  26.7524 333.3472 12.62338604201672
GLOBALSTAR M034         
1 25962U 99062B   25338.04171317 -.00000022  00000+0  93687-3 0  9995
2 25962  51.9884 289.8622 0014743   4.0177  75.4397 11.79453192158434
GLOBALSTAR M029         
1 25963U 99062C   25337.81244002 -.00000058  00000+0  34673-3 0  9991
2 25963  51.9824 356.1681 0002596  91.9995  78.7787 11.99903320189481
GLOBALSTAR M061         
1 25964U 99062D   25338.11398144 -.00000091  00000+0 -17481-3 0  9999
2 25964  51.9778 115.9625 0004864 283.1947 248.1031 11.76778316141181
